STARLINK-2252           
1 48595U 21041AU  24225.40103693  .00007604  00000+0  52841-3 0  9999
2 48595  53.0531 199.6974 0001501  94.6675 265.4486 15.06430283179777
STARLINK-2253           
1 48596U 21041AV  24225.35681779  .00015085  00000+0  10281-2 0  9993
2 48596  53.0529 199.8966 0001593  88.9114 271.2057 15.06448737178954
STARLINK-2255           
1 48597U 21041AW  24225.36417723  .00007656  00000+0  53203-3 0  9998
2 48597  53.0532 199.8660 0001409 104.8086 255.3059 15.06417157179769
STARLINK-2275           
1 48600U 21041AZ  24225.16607176  .00006961  00000+0  48555-3 0  9996
2 48600  53.0526 190.7549 0001429  94.6492 265.4660 15.06417541179871
STARLINK-2713           
1 48602U 21041BB  24225.55999336  .00024462  00000+0  16538-2 0  9994
2 48602  53.0540 173.9877 0002640  77.0111 283.1172 15.06435235180131
STARLINK-2714           
1 48603U 21041BC  24225.53923503  .00022073  00000+0  14946-2 0  9993
2 48603  53.0529 169.0795 0002797  71.0173 289.1119 15.06436490180219
STARLINK-2757           
1 48604U 21041BD  24225.40840652  .00001445  00000+0  11578-3 0  9992
2 48604  53.0532 199.6648 0001388  82.2980 277.8167 15.06439138179773
STARLINK-2739           
1 48639U 21044B   24225.27985109  .00001110  00000+0  93373-4 0  9998
2 48639  53.0552 175.2466 0001571 125.7301 234.3835 15.06426844177201
STARLINK-2736           
1 48640U 21044C   24225.13983365  .00025071  00000+0  16940-2 0  9992
2 48640  53.0531 176.1525 0001388  85.1506 274.9641 15.06444084177175
STARLINK-2754           
1 48641U 21044D   24225.15223361  .00010691  00000+0  73480-3 0  9993
2 48641  53.0535 180.8136 0001370  90.3006 269.8140 15.06435804177115
STARLINK-2646           
1 48642U 21044E   24225.56505910  .00004122  00000+0  29530-3 0  9991
2 48642  53.0542 178.9722 0001561  93.4433 266.6734 15.06420477177173
STARLINK-2704           
1 48643U 21044F   24225.28031131  .00027739  00000+0  18722-2 0  9999
2 48643  53.0518 180.2280 0001542  88.1660 271.9505 15.06432030177133
STARLINK-2695           
1 48644U 21044G   24225.60929528 -.00000484  00000+0 -13578-4 0  9998
2 48644  53.0544 178.7598 0002261  94.6017 265.5230 15.06405229177183
STARLINK-2733           
1 48645U 21044H   24225.60564521  .00007703  00000+0  53554-3 0  9993
2 48645  53.0539 178.7788 0001296 104.0321 256.0812 15.06395113177181
STARLINK-2732           
1 48646U 21044J   24225.60193012  .00007485  00000+0  52066-3 0  9991
2 48646  53.0526 178.7958 0001954  84.7422 275.3790 15.06415178177187
STARLINK-2691           
1 48647U 21044K   24225.59824159  .00009229  00000+0  63734-3 0  9995
2 48647  53.0529 178.8115 0002092  85.1170 275.0058 15.06419194177182
STARLINK-2521           
1 48648U 21044L   24225.61299741  .00010336  00000+0  71120-3 0  9991
2 48648  53.0534 178.9112 0001561  98.3899 261.7267 15.06428076177184
STARLINK-2673           
1 48649U 21044M   24225.59456095  .00002940  00000+0  21613-3 0  9990
2 48649  53.0529 178.8313 0002486  80.4675 279.6594 15.06408704177178
STARLINK-2672           
1 48650U 21044N   24225.59086829  .00011457  00000+0  78626-3 0  9995
2 48650  53.0522 178.8467 0002527  75.0230 285.1038 15.06424602177176
STARLINK-2731           
1 48651U 21044P   24225.58720873  .00027392  00000+0  18505-2 0  9993
2 48651  53.0533 178.8623 0002337  85.0860 275.0396 15.06403019177176
STARLINK-2727           
1 48652U 21044Q   24225.58349384  .00022154  00000+0  15002-2 0  9998
2 48652  53.0526 178.8821 0002777  75.9525 284.1772 15.06430887177175
STARLINK-2720           
1 48653U 21044R   24225.57980086  .00009373  00000+0  64681-3 0  9994
2 48653  53.0530 178.8970 0002575  78.9551 281.1727 15.06429297177174
STARLINK-2651           
1 48654U 21044S   24225.57612194  .00012113  00000+0  83003-3 0  9992
2 48654  53.0531 178.9116 0002725  71.1886 288.9398 15.06427296177178
STARLINK-2657           
1 48655U 21044T   24225.57241975  .00027862  00000+0  18788-2 0  9992
2 48655  53.0535 178.9308 0001160  96.0279 264.0843 15.06463421177170
STARLINK-2701           
1 48656U 21044U   24225.56874300  .00009389  00000+0  64781-3 0  9995
2 48656  53.0539 178.9415 0001963 101.3587 258.7622 15.06431287177177
STARLINK-2734           
1 48657U 21044V   24225.59725008  .00009704  00000+0  66917-3 0  9993
2 48657  53.0533 178.4557 0001348  99.6798 260.4343 15.06416018177180
STARLINK-2647           
1 48658U 21044W   24225.29598409  .00021664  00000+0  14668-2 0  9998
2 48658  53.0531 180.1683 0001295  90.8958 269.2179 15.06451033177136
STARLINK-2717           
1 48659U 21044X   24225.29229622  .00015804  00000+0  10764-2 0  9999
2 48659  53.0530 180.1835 0001340  95.3844 264.7297 15.06438278177137
STARLINK-2688           
1 48660U 21044Y   24225.28861997  .00017469  00000+0  11876-2 0  9991
2 48660  53.0523 180.2055 0001693  99.5995 260.5185 15.06434763177135
STARLINK-2726           
1 48662U 21044AA  24225.55123259  .00021751  00000+0  14731-2 0  9997
2 48662  53.0534 169.0239 0001654  83.0567 277.0610 15.06437892177310
STARLINK-2667           
1 48663U 21044AB  24225.54756364  .00016975  00000+0  11553-2 0  9997
2 48663  53.0534 169.0381 0004096  65.7099 294.4317 15.06411461177310
STARLINK-2709           
1 48664U 21044AC  24225.27847752  .00028646  00000+0  19353-2 0  9994
2 48664  53.0534 170.2515 0001609  95.3582 264.7591 15.06379453177270
STARLINK-2666           
1 48666U 21044AE  24225.56972372 -.00001139  00000+0 -57577-4 0  9997
2 48666  53.0524 169.4139 0001364  96.5691 263.5453 15.06410760177300
STARLINK-2735           
1 48667U 21044AF  24225.54016952  .00020092  00000+0  13627-2 0  9992
2 48667  53.0539 169.0738 0001642  90.8552 269.2625 15.06432096178154
STARLINK-2738           
1 48668U 21044AG  24225.20475495  .00023109  00000+0  15627-2 0  9991
2 48668  53.0534 170.5794 0001198  96.3595 263.7531 15.06459087178168
STARLINK-2707           
1 48669U 21044AH  24225.26743306  .00003519  00000+0  25504-3 0  9996
2 48669  53.0535 170.2979 0001339  96.9636 263.1506 15.06397495177261
STARLINK-2763           
1 48670U 21044AJ  24225.13104938  .00021379  00000+0  14487-2 0  9997
2 48670  53.0523 170.9100 0001270 104.9468 255.1661 15.06428218177249
STARLINK-2745           
1 48671U 21044AK  24225.55497578  .00006790  00000+0  47423-3 0  9996
2 48671  53.0538 169.3188 0001321  89.4831 270.6309 15.06404130177307
STARLINK-2705           
1 48672U 21044AL  24225.12366639  .00030069  00000+0  20255-2 0  9992
2 48672  53.0527 170.9418 0001410  92.8056 267.3095 15.06462664177240
STARLINK-2711           
1 48673U 21044AM  24225.58440448  .00002803  00000+0  20679-3 0  9990
2 48673  53.0535 168.8749 0001561  88.9769 271.1399 15.06434466177314
STARLINK-2712           
1 48674U 21044AN  24225.12736730  .00025454  00000+0  17197-2 0  9990
2 48674  53.0534 171.0409 0001240  84.9693 275.1438 15.06440623177241
STARLINK-2737           
1 48675U 21044AP  24225.57703391  .00015516  00000+0  10576-2 0  9999
2 48675  53.0531 168.9089 0001660 101.0391 259.0785 15.06423196177310
STARLINK-2746           
1 48676U 21044AQ  24225.57334610  .00016116  00000+0  10975-2 0  9994
2 48676  53.0530 168.9257 0001405 106.1392 253.9752 15.06429579177319
STARLINK-2719           
1 48677U 21044AR  24225.66667824  .01457521  00000+0  54278-2 0  9995
2 48677  53.0497 156.1291 0000876 142.1335 201.5219 15.84836567  5881
STARLINK-2615           
1 48678U 21044AS  24225.56598327  .00014773  00000+0  10080-2 0  9996
2 48678  53.0523 168.9547 0001671 104.5268 255.5907 15.06422090177315
STARLINK-2648           
1 48679U 21044AT  24225.56229371  .00028420  00000+0  19169-2 0  9998
2 48679  53.0529 168.9694 0001670  63.0390 297.0769 15.06443067177313
STARLINK-2649           
1 48680U 21044AU  24225.55859773  .00014282  00000+0  97475-3 0  9992
2 48680  53.0525 168.9926 0000228   4.3092 355.7898 15.06438101177312
STARLINK-2725           
1 48681U 21044AV  24225.49139562 -.00003382  00000+0 -20839-3 0  9994
2 48681  53.0544 139.5309 0001537 117.7208 242.3937 15.06370322177714
STARLINK-2743           
1 48682U 21044AW  24225.15687286  .00040234  00000+0  27017-2 0  9998
2 48682  53.0528 130.9578 0001272  78.5293 281.5839 15.06440066177803
STARLINK-2756           
1 48683U 21044AX  24225.44437112  .00007749  00000+0  53847-3 0  9997
2 48683  53.0532 129.5157 0002902  70.9372 289.1931 15.06404468177859
STARLINK-2741           
1 48684U 21044AY  24225.20159560  .00011565  00000+0  79449-3 0  9997
2 48684  53.0538 145.9498 0001585  96.2624 263.8545 15.06379078178504
STARLINK-2751           
1 48685U 21044AZ  24225.14949114  .00038964  00000+0  26179-2 0  9996
2 48685  53.0538 130.8736 0001668  97.8556 262.2622 15.06433634177817
STARLINK-2629           
1 48686U 21044BA  24225.47526639  .00028423  00000+0  19183-2 0  9992
2 48686  53.0534 134.6476 0001069 109.5514 250.5590 15.06419959177781
STARLINK-2627           
1 48687U 21044BB  24225.45036375  .00007395  00000+0  51495-3 0  9992
2 48687  53.0522 124.4794 0002020  69.6255 290.4951 15.06391570177923
STARLINK-2742           
1 48688U 21044BC  24225.45404867  .00005419  00000+0  38262-3 0  9990
2 48688  53.0529 124.4641 0002378  74.6053 285.5198 15.06380962177921
STARLINK-2617           
1 48689U 21044BD  24225.45910442  .00028029  00000+0  18919-2 0  9990
2 48689  53.0529 129.4094 0001719  81.7672 278.3512 15.06423015177852
STARLINK-2740           
1 48690U 21044BE  24225.46552826 -.00007473  00000+0 -48296-3 0  9995
2 48690  53.0536 139.4113 0001285  91.9084 268.2052 15.06425385177717
STARLINK-2750           
1 48691U 21044BF  24225.17298085  .00014548  00000+0  99295-3 0  9992
2 48691  53.0548 135.7213 0001639  94.3948 265.7228 15.06420683177746
STARLINK-2752           
1 48692U 21044BG  24225.48999153  .00017300  00000+0  11779-2 0  9990
2 48692  53.0535 134.4227 0002022  86.2644 273.8576 15.06384956177797
